{
  "type": "FeatureCollection",
  "features": [
    {
      "type": "Feature",
      "properties": {
        "norad_id": 29904,
        "name": "FENGYUN 1C DEB",
        "group": "fengyun-1c-debris",
        "lat": 35.77897461332313,
        "lon": -153.67148285330856,
        "alt_km": 887.7547456484172,
        "timestamp": "2025-12-08T03:50:07.269406+00:00",
        "meta_object_name": "FENGYUN 1C DEB",
        "meta_object_id": "1999-025HA",
        "meta_epoch": "2025-12-07T02:13:57.608832",
        "meta_mean_motion": 14.4444689,
        "meta_eccentricity": 0.02080789,
        "meta_inclination": 99.0418,
        "meta_ra_of_asc_node": 18.6043,
        "meta_arg_of_pericenter": 335.5004,
        "meta_mean_anomaly": 23.6405,
        "meta_ephemeris_type": 0,
        "meta_classification_type": "U",
        "meta_norad_cat_id": 29904,
        "meta_element_set_no": 999,
        "meta_rev_at_epoch": 98982,
        "meta_bstar": 0.00071574874,
        "meta_mean_motion_dot": 3.158e-05,
        "meta_mean_motion_ddot": 0,
        "tle_line1": "1 29904U 99025HA  25341.09302788  .00003158  00000+0  71575-3 0  9995",
        "tle_line2": "2 29904  99.0418  18.6043 0208078 335.5004  23.6405 14.44446890989824"
      },
      "geometry": {
        "type": "Point",
        "coordinates": [
          -153.67148285330856,
          35.77897461332313
        ]
      }
    },
    {
      "type": "Feature",
      "properties": {
        "norad_id": 29906,
        "name": "FENGYUN 1C DEB",
        "group": "fengyun-1c-debris",
        "lat": -26.008638390533257,
        "lon": 89.64586304812575,
        "alt_km": 759.1487065684814,
        "timestamp": "2025-12-08T03:50:07.269416+00:00",
        "meta_object_name": "FENGYUN 1C DEB",
        "meta_object_id": "1999-025HC",
        "meta_epoch": "2025-12-07T06:25:12.652320",
        "meta_mean_motion": 14.4948087,
        "meta_eccentricity": 0.00373988,
        "meta_inclination": 98.7064,
        "meta_ra_of_asc_node": 84.4372,
        "meta_arg_of_pericenter": 165.2853,
        "meta_mean_anomaly": 194.9438,
        "meta_ephemeris_type": 0,
        "meta_classification_type": "U",
        "meta_norad_cat_id": 29906,
        "meta_element_set_no": 999,
        "meta_rev_at_epoch": 98078,
        "meta_bstar": 0.0041330265,
        "meta_mean_motion_dot": 0.00015961,
        "meta_mean_motion_ddot": 0,
        "tle_line1": "1 29906U 99025HC  25341.26750755  .00015961  00000+0  41330-2 0  9997",
        "tle_line2": "2 29906  98.7064  84.4372 0037398 165.2853 194.9438 14.49480870980785"
      },
      "geometry": {
        "type": "Point",
        "coordinates": [
          89.64586304812575,
          -26.008638390533257
        ]
      }
    },
    {
      "type": "Feature",
      "properties": {
        "norad_id": 29907,
        "name": "FENGYUN 1C DEB",
        "group": "fengyun-1c-debris",
        "lat": 24.752533615871624,
        "lon": 44.520347614031834,
        "alt_km": 885.5409606928661,
        "timestamp": "2025-12-08T03:50:07.269426+00:00",
        "meta_object_name": "FENGYUN 1C DEB",
        "meta_object_id": "1999-025HD",
        "meta_epoch": "2025-12-07T04:01:38.580960",
        "meta_mean_motion": 14.11587465,
        "meta_eccentricity": 0.00834686,
        "meta_inclination": 99.1118,
        "meta_ra_of_asc_node": 47.7568,
        "meta_arg_of_pericenter": 265.1131,
        "meta_mean_anomaly": 120.9872,
        "meta_ephemeris_type": 0,
        "meta_classification_type": "U",
        "meta_norad_cat_id": 29907,
        "meta_element_set_no": 999,
        "meta_rev_at_epoch": 96520,
        "meta_bstar": 0.002350465,
        "meta_mean_motion_dot": 4.367e-05,
        "meta_mean_motion_ddot": 0,
        "tle_line1": "1 29907U 99025HD  25341.16780765  .00004367  00000+0  23505-2 0  9993",
        "tle_line2": "2 29907  99.1118  47.7568 0083468 265.1131 120.9872 14.11587465965206"
      },
      "geometry": {
        "type": "Point",
        "coordinates": [
          44.520347614031834,
          24.752533615871624
        ]
      }
    },
    {
      "type": "Feature",
      "properties": {
        "norad_id": 29909,
        "name": "FENGYUN 1C DEB",
        "group": "fengyun-1c-debris",
        "lat": -40.65190957817022,
        "lon": 93.30920343362891,
        "alt_km": 706.9638185620097,
        "timestamp": "2025-12-08T03:50:07.269436+00:00",
        "meta_object_name": "FENGYUN 1C DEB",
        "meta_object_id": "1999-025HF",
        "meta_epoch": "2025-12-07T06:41:10.442976",
        "meta_mean_motion": 14.54979175,
        "meta_eccentricity": 0.00384396,
        "meta_inclination": 98.6357,
        "meta_ra_of_asc_node": 84.9009,
        "meta_arg_of_pericenter": 32.6892,
        "meta_mean_anomaly": 353.5279,
        "meta_ephemeris_type": 0,
        "meta_classification_type": "U",
        "meta_norad_cat_id": 29909,
        "meta_element_set_no": 999,
        "meta_rev_at_epoch": 98326,
        "meta_bstar": 0.0032612425,
        "meta_mean_motion_dot": 0.00014154,
        "meta_mean_motion_ddot": 0,
        "tle_line1": "1 29909U 99025HF  25341.27859309  .00014154  00000+0  32612-2 0  9992",
        "tle_line2": "2 29909  98.6357  84.9009 0038439  32.6892 353.5279 14.54979175983260"
      },
      "geometry": {
        "type": "Point",
        "coordinates": [
          93.30920343362891,
          -40.65190957817022
        ]
      }
    },
    {
      "type": "Feature",
      "properties": {
        "norad_id": 29911,
        "name": "FENGYUN 1C DEB",
        "group": "fengyun-1c-debris",
        "lat": -18.74213754743309,
        "lon": 28.333813256982246,
        "alt_km": 853.9818186479861,
        "timestamp": "2025-12-08T03:50:07.269446+00:00",
        "meta_object_name": "FENGYUN 1C DEB",
        "meta_object_id": "1999-025HH",
        "meta_epoch": "2025-12-07T01:08:21.059808",
        "meta_mean_motion": 14.18829438,
        "meta_eccentricity": 0.00273322,
        "meta_inclination": 98.7156,
        "meta_ra_of_asc_node": 24.2571,
        "meta_arg_of_pericenter": 166.7319,
        "meta_mean_anomaly": 255.9891,
        "meta_ephemeris_type": 0,
        "meta_classification_type": "U",
        "meta_norad_cat_id": 29911,
        "meta_element_set_no": 999,
        "meta_rev_at_epoch": 97350,
        "meta_bstar": 0.0012515701,
        "meta_mean_motion_dot": 2.57e-05,
        "meta_mean_motion_ddot": 0,
        "tle_line1": "1 29911U 99025HH  25341.04746597  .00002570  00000+0  12516-2 0  9994",
        "tle_line2": "2 29911  98.7156  24.2571 0027332 166.7319 255.9891 14.18829438973502"
      },
      "geometry": {
        "type": "Point",
        "coordinates": [
          28.333813256982246,
          -18.74213754743309
        ]
      }
    },
    {
      "type": "Feature",
      "properties": {
        "norad_id": 29912,
        "name": "FENGYUN 1C DEB",
        "group": "fengyun-1c-debris",
        "lat": -78.49935137073203,
        "lon": -149.62272791619938,
        "alt_km": 730.0785212467345,
        "timestamp": "2025-12-08T03:50:07.269456+00:00",
        "meta_object_name": "FENGYUN 1C DEB",
        "meta_object_id": "1999-025HJ",
        "meta_epoch": "2025-12-06T22:38:16.895904",
        "meta_mean_motion": 14.42848301,
        "meta_eccentricity": 0.00426686,
        "meta_inclination": 98.7392,
        "meta_ra_of_asc_node": 78.2446,
        "meta_arg_of_pericenter": 235.6564,
        "meta_mean_anomaly": 191.0546,
        "meta_ephemeris_type": 0,
        "meta_classification_type": "U",
        "meta_norad_cat_id": 29912,
        "meta_element_set_no": 999,
        "meta_rev_at_epoch": 97955,
        "meta_bstar": 0.0035235875,
        "meta_mean_motion_dot": 0.00011864,
        "meta_mean_motion_ddot": 0,
        "tle_line1": "1 29912U 99025HJ  25340.94325111  .00011864  00000+0  35236-2 0  9998",
        "tle_line2": "2 29912  98.7392  78.2446 0042668 235.6564 191.0546 14.42848301979557"
      },
      "geometry": {
        "type": "Point",
        "coordinates": [
          -149.62272791619938,
          -78.49935137073203
        ]
      }
    },
    {
      "type": "Feature",
      "properties": {
        "norad_id": 29913,
        "name": "FENGYUN 1C DEB",
        "group": "fengyun-1c-debris",
        "lat": -55.90432666323531,
        "lon": 147.92858724539036,
        "alt_km": 845.0731830857449,
        "timestamp": "2025-12-08T03:50:07.269466+00:00",
        "meta_object_name": "FENGYUN 1C DEB",
        "meta_object_id": "1999-025HK",
        "meta_epoch": "2025-12-06T19:08:01.580064",
        "meta_mean_motion": 14.0737237,
        "meta_eccentricity": 0.00619522,
        "meta_inclination": 98.7874,
        "meta_ra_of_asc_node": 339.8124,
        "meta_arg_of_pericenter": 288.4979,
        "meta_mean_anomaly": 249.2155,
        "meta_ephemeris_type": 0,
        "meta_classification_type": "U",
        "meta_norad_cat_id": 29913,
        "meta_element_set_no": 999,
        "meta_rev_at_epoch": 96881,
        "meta_bstar": 0.00053857471,
        "meta_mean_motion_dot": 8.78e-06,
        "meta_mean_motion_ddot": 0,
        "tle_line1": "1 29913U 99025HK  25340.79724051  .00000878  00000+0  53857-3 0  9991",
        "tle_line2": "2 29913  98.7874 339.8124 0061952 288.4979 249.2155 14.07372370968813"
      },
      "geometry": {
        "type": "Point",
        "coordinates": [
          147.92858724539036,
          -55.90432666323531
        ]
      }
    }
  ]
}